ZHOU ENLAI              
1 43156U 18008B   21206.78545402  .00002008  00000-0  11989-3 0  9993
2 43156  97.4050 270.4354 0014159 189.0546 310.3573 15.12160329193807
QUANTUTONG 1            
1 43158U 18008D   21206.12656177  .00001020  00000-0  63723-4 0  9992
2 43158  97.3992 268.3183 0013213 190.8485 199.7107 15.11568002193633
S-NET D                 
1 43186U 18014G   21206.45403090 -.00000150  00000-0 -79481-5 0  9994
2 43186  97.6745 113.3555 0010167 321.4516  38.5979 14.97094714189984
S-NET B                 
1 43187U 18014H   21206.52080053 -.00000143  00000-0 -73597-5 0  9997
2 43187  97.6742 113.3862 0010178 321.0476  39.0012 14.97094139189992
S-NET A                 
1 43188U 18014J   21206.52088092 -.00000144  00000-0 -74786-5 0  9991
2 43188  97.6746 113.4326 0010176 321.1942  38.8548 14.97093042189993
S-NET C                 
1 43189U 18014K   21206.52136652 -.00000133  00000-0 -65182-5 0  9996
2 43189  97.6742 113.3789 0010171 320.9703  39.0784 14.97092596188547
FENGMANIU-1 (FMN-1)     
1 43192U 18015A   21206.78842586  .00005047  00000-0  18495-3 0  9999
2 43192  97.4935 342.3614 0015981 106.2824  25.6910 15.28352188193445
SHAONIAN XING           
1 43199U 18015H   21206.83036317  .00003633  00000-0  13628-3 0  9991
2 43199  97.4717 339.4174 0017302 114.9749  38.9730 15.27750848193507
LUOJIA-1 01             
1 43485U 18048B   21206.67951348  .00000198  00000-0  35409-4 0  9992
2 43485  97.9612 287.8466 0011531 166.4992 193.6531 14.76873560169639
SURFSAT                 
1 43614U 18070B   21206.30536425  .00006280  00000-0  14463-3 0  9990
2 43614  93.0360 321.7660 0012676 206.5585 153.5023 15.42549271160500
CP7 (DAVE)              
1 43615U 18070C   21206.07039665  .00006634  00000-0  15435-3 0  9992
2 43615  93.0364 321.6191 0012813 207.8934 152.1637 15.42241196160453
ELFIN-B                 
1 43616U 18070D   21206.27856611  .00010399  00000-0  21736-3 0  9997
2 43616  93.0317 321.9429 0012803 203.7878 156.2789 15.45396465160614
ELFIN-A                 
1 43617U 18070E   21206.74421905  .00011511  00000-0  23637-3 0  9993
2 43617  93.0366 323.0214 0012422 197.9944 162.0876 15.45916256160707
STARS-ME                
1 43640U 98067PQ  21177.48090856  .06251270  12411-4  46174-3 0  9996
2 43640  51.6078 176.1291 0003401 286.8094  73.2559 16.39860287155785
CZ-4B R/B               
1 43656U 18081B   21206.52723022 -.00000013  00000-0  13708-4 0  9994
2 43656  99.3672 309.6885 0208592   3.8621 356.4111 14.30473170143613
CUBEBEL-1 (BSUSAT-1)    
1 43666U 18083E   21206.84382237  .00002104  00000-0  10209-3 0  9995
2 43666  97.4534 234.7260 0015692  40.5334  79.2113 15.19490580151849
CHANGSHAGAOXIN (TY 4-01)
1 43669U 18083H   21206.86440138  .00002138  00000-0  10757-3 0  9990
2 43669  97.4448 231.7015 0011663  38.5064  78.9361 15.18243113151716
TEN-KOH                 
1 43677U 18084G   21206.31869047  .00000165  00000-0  22819-4 0  9995
2 43677  97.9247 329.4629 0014529 269.8266  90.1287 14.90490713148943
DIWATA-2B               
1 43678U 18084H   21206.75396870 -.00000266  00000-0 -20609-4 0  9992
2 43678  97.9284 332.2406 0008678 288.1282  71.8998 14.91764256149145
STARS-AO                
1 43679U 18084J   21206.30867275  .00000606  00000-0  64656-4 0  9992
2 43679  97.9326 333.0675 0007801 296.4129  63.6288 14.92551980149138
AUTCUBE 2               
1 43681U 18084K   21206.61767826  .00000459  00000-0  50832-4 0  9997
2 43681  97.9293 332.4442 0008062 287.8831  72.1508 14.92117408149103
IRVINE01                
1 43693U 18088D   21206.33060992  .00005115  00000-0  19735-3 0  9993
2 43693  85.0357 169.7815 0013733 240.1578 119.8302 15.25947483150217
ES'HAIL 2               
1 43700U 18090A   21206.31883914  .00000127  00000-0  00000-0 0  9990
2 43700   0.0185  88.8314 0001826  63.3397 291.6239  1.00272919  9743
FACSAT-1                
1 43721U 18096C   21206.88170961  .00003905  00000-0  14030-3 0  9990
2 43721  97.3852 283.7315 0018072 131.7542 339.5957 15.29104251147994
CENTAURI-2              
1 43722U 18096D   21206.47595070  .00004467  00000-0  15445-3 0  9993
2 43722  97.3870 284.2050 0017678 131.7793 228.4962 15.30283298147977
3CAT-1                  
1 43728U 18096K   21206.87623171  .00004976  00000-0  17013-3 0  9995
2 43728  97.3885 285.1936 0017689 134.1490 337.5524 15.30591092148066
INNOSAT-2               
1 43738U 18096V   21206.84219811  .00007822  00000-0  23875-3 0  9991
2 43738  97.3936 288.5825 0022366 131.2772   8.2847 15.33948523148289
REAKTOR HELLO WORLD     
1 43743U 18096AA  21206.47526751  .00002910  00000-0  10563-3 0  9993
2 43743  97.3851 283.6992 0018310 137.9306 222.3343 15.28977034147947
ELYSIUM STAR 2 & LFF    
1 43760U 18099C   21206.44247660  .00000598  00000-0  57810-4 0  9998
2 43760  97.6689 276.9755 0012195 281.2793  78.7058 14.96402532144198
2018-099D               
1 43761U 18099D   21206.49033681  .00001017  00000-0  97307-4 0  9992
2 43761  97.6658 276.2748 0012602 284.2539  75.7287 14.95329802144147
AISTECHSAT 2            
1 43768U 18099L   21206.45666009  .00000437  00000-0  45181-4 0  9999
2 43768  97.6604 275.1031 0009923 283.8818  76.1299 14.94935973143828
FOX-1CLIFF (AO-95)      
1 43770U 18099N   21206.45797725  .00000593  00000-0  58831-4 0  9991
2 43770  97.6631 275.8034 0013032 292.5533  67.4309 14.95364851144130
RANGE-A                 
1 43772U 18099Q   21206.47855992  .00001178  00000-0  11089-3 0  9999
2 43772  97.6723 276.8778 0012386 278.0145  81.9670 14.95678290144147
RANGE-B                 
1 43773U 18099R   21206.13174433  .00000735  00000-0  71875-4 0  9995
2 43773  97.6566 274.7697 0011916 279.5350  80.4524 14.95246181144076
2018-099T               
1 43775U 18099T   21206.46576872  .00000617  00000-0  61114-4 0  9990
2 43775  97.6635 276.0184 0013052 282.7758  77.2004 14.95312582144135
MOVE-II                 
1 43780U 18099Y   21206.47065022  .00001300  00000-0  12091-3 0  9996
2 43780  97.6653 276.3943 0011751 288.6010  71.3935 14.95995258144154
SNUSAT-2                
1 43782U 18099AA  21206.15009451  .00000863  00000-0  82796-4 0  9990
2 43782  97.6635 275.8567 0011033 278.6185  81.3786 14.95606143144109
SNUGLITE                
1 43784U 18099AC  21206.15526425  .00000662  00000-0  64462-4 0  9994
2 43784  97.6599 275.5785 0013385 287.2320  72.7436 14.95736599144125
ITASAT 1                
1 43786U 18099AE  21206.43669730  .00000023  00000-0  72253-5 0  9993
2 43786  97.6655 276.4873 0013650 285.5284  74.4430 14.95656121144162
KAZSCISAT-1             
1 43787U 18099AF  21206.14587297  .00001310  00000-0  12122-3 0  9996
2 43787  97.6570 275.3748 0012278 282.5480  77.4367 14.96167540144141
EAGLET-I                
1 43790U 18099AJ  21206.46235074  .00000562  00000-0  55162-4 0  9998
2 43790  97.6640 276.9394 0011981 288.7883  71.2038 14.96002144143898
ESEO                    
1 43792U 18099AL  21206.65391247  .00000039  00000-0  85781-5 0  9996
2 43792  97.6605 276.6890 0011886 285.4726  74.5182 14.95756865143973
CSIM-FD                 
1 43793U 18099AM  21206.45587209  .00000791  00000-0  74336-4 0  9998
2 43793  97.6637 276.9479 0011477 280.5281  79.4647 14.96657406143953
ASTROCAST 0.1           
1 43798U 18099AS  21206.40631511  .00000957  00000-0  89874-4 0  9991
2 43798  97.6648 277.0960 0010716 265.8275  94.1722 14.96234278144194
JY1SAT (JO-97)          
1 43803U 18099AX  21206.46108706  .00000696  00000-0  67264-4 0  9998
2 43803  97.6612 276.2585 0013563 284.3712  75.6003 14.95907928144173
SUOMI-100               
1 43804U 18099AY  21206.13289074  .00000865  00000-0  82365-4 0  9998
2 43804  97.6610 275.9009 0013573 285.7909  74.1815 14.95877320144136
AL-FARABI 2             
1 43805U 18099AZ  21206.52959201  .00000710  00000-0  68118-4 0  9997
2 43805  97.6624 276.5307 0013765 283.3072  76.6633 14.96105084144203
CENTAURI-1              
1 43809U 18099BD  21206.47918121  .00000881  00000-0  83853-4 0  9993
2 43809  97.6627 276.5494 0013498 286.0416  73.9318 14.95870563143885
CHOMPTT                 
1 43855U 18104G   21206.47014296  .00001814  00000-0  72735-4 0  9995
2 43855  85.0363 268.3047 0017342  14.3129 345.8602 15.24110468144884
DAVINCI                 
1 43857U 18104J   21206.42749919  .00004551  00000-0  17601-3 0  9990
2 43857  85.0309 268.0308 0015545  39.6424 320.5953 15.25805369144874
UWE-4                   
1 43880U 18111E   21206.48606631  .00001111  00000-0  10172-3 0  9998
2 43880  97.6839 113.5669 0011592 344.6520  15.4349 14.96916277140777
ZACUBE-2                
1 43907U 18111AH  21206.77139620  .00001110  00000-0  46603-4 0  9997
2 43907  97.2287  99.6213 0021822 153.3317 291.4704 15.25275687143472
MICRODRAGON             
1 43935U 19003D   21206.42404292  .00001495  00000-0  65554-4 0  9993
2 43935  97.1785 246.2180 0016142 250.4970 109.4524 15.23373102139888
AOBA VELOX-IV           
1 43940U 19003J   21206.76128825  .00004836  00000-0  18086-3 0  9990
2 43940  97.1746 249.4098 0020872 229.5837 130.3583 15.27583226140152
M6P                     
1 44109U 19018AF  21206.47334085  .00003448  00000-0  10529-3 0  9991
2 44109  97.4256 283.7837 0054462 216.0301 143.7266 15.33155967129281
SPOOQY-1                
1 44332U 98067QH  21206.09790849  .00091179  00000-0  45940-3 0  9995
2 44332  51.6329  91.3246 0003346 107.3530 252.7838 15.80886819120040
FORMOSAT 7-4            
1 44350U 19036M   21206.04947133  .00001209  00000-0  55266-4 0  9997
2 44350  23.9993 112.0466 0006248 137.1194 222.9797 15.07845179113975
PAINANI 1               
1 44365U 19037A   21205.98233226  .00006224  00000-0  15270-3 0  9999
2 44365  45.0054  48.5728 0003351  67.4925 292.6318 15.41619614116569
ACRUX 1                 
1 44369U 19037E   21206.47105195  .00012091  00000-0  23111-3 0  9993
2 44369  45.0063  21.1434 0007573  54.3649 305.7946 15.48185402116880
